start=new Date('2022-11-01T00:00:00.000Z').valueOf();
sats=[{"LAUNCH_DATE":"2020-10-18","APOAPSIS":"548.580","CENTER_NAME":"EARTH","MEAN_MOTION":"15.06396493","ARG_OF_PERICENTER":"44.5317","OBJECT_TYPE":"PAYLOAD","SEMIMAJOR_AXIS":"6925.359","FILE":"3639522","SITE":"AFETR","MEAN_ANOMALY":"315.5829","TIME_SYSTEM":"UTC","PERIOD":"95.592","COUNTRY_CODE":"US","REV_AT_EPOCH":"11251","CLASSIFICATION_TYPE":"U","TLE_LINE2":"2 46675  53.0550 340.2922 0001958  44.5317 315.5829 15.06396493112516","OBJECT_NAME":"STARLINK-1720","INCLINATION":"53.0550","MEAN_MOTION_DOT":"0.00000233","OBJECT_ID":"2020-073F","ECCENTRICITY":"0.00019580","NORAD_CAT_ID":"46675","DECAY_DATE":null,"RCS_SIZE":"LARGE","TLE_LINE1":"1 46675U 20073F   22304.81617586  .00000233  00000-0  34527-4 0  9996","ELEMENT_SET_NO":"999","REF_FRAME":"TEME","BSTAR":"0.00003452700000","PERIAPSIS":"545.868","EPHEMERIS_TYPE":"0","MEAN_ELEMENT_THEORY":"SGP4","RA_OF_ASC_NODE":"340.2922","EPOCH":"2022-10-31T19:35:17.594304","GP_ID":"216612883","MEAN_MOTION_DDOT":"0.0000000000000"},{"MEAN_ELEMENT_THEORY":"SGP4","RA_OF_ASC_NODE":"340.3085","EPOCH":"2022-10-31T19:29:58.585632","MEAN_MOTION_DDOT":"0.0000000000000","GP_ID":"216613632","ECCENTRICITY":"0.00016490","DECAY_DATE":null,"NORAD_CAT_ID":"46677","RCS_SIZE":"LARGE","TLE_LINE1":"1 46677U 20073H   22304.81248363  .00000394  00000-0  45361-4 0  9997","ELEMENT_SET_NO":"999","REF_FRAME":"TEME","BSTAR":"0.00004536100000","EPHEMERIS_TYPE":"0","PERIAPSIS":"546.085","PERIOD":"95.592","COUNTRY_CODE":"US","REV_AT_EPOCH":"11251","CLASSIFICATION_TYPE":"U","TLE_LINE2":"2 46677  53.0560 340.3085 0001649  56.4916 303.6230 15.06395744112516","OBJECT_NAME":"STARLINK-1766","MEAN_MOTION_DOT":"0.00000394","INCLINATION":"53.0560","OBJECT_ID":"2020-073H","LAUNCH_DATE":"2020-10-18","APOAPSIS":"548.369","CENTER_NAME":"EARTH","MEAN_MOTION":"15.06395744","OBJECT_TYPE":"PAYLOAD","ARG_OF_PERICENTER":"56.4916","FILE":"3639522","SEMIMAJOR_AXIS":"6925.362","SITE":"AFETR","TIME_SYSTEM":"UTC","MEAN_ANOMALY":"303.6230"},{"ECCENTRICITY":"0.00020720","DECAY_DATE":null,"NORAD_CAT_ID":"46679","RCS_SIZE":"LARGE","TLE_LINE1":"1 46679U 20073K   22304.75167712 -.00001750  00000-0 -98619-4 0  9993","ELEMENT_SET_NO":"999","BSTAR":"-0.00009861900000","REF_FRAME":"TEME","PERIAPSIS":"545.812","EPHEMERIS_TYPE":"0","MEAN_ELEMENT_THEORY":"SGP4","RA_OF_ASC_NODE":"320.5777","EPOCH":"2022-10-31T18:02:24.903168","GP_ID":"216613884","MEAN_MOTION_DDOT":"0.0000000000000","LAUNCH_DATE":"2020-10-18","APOAPSIS":"548.682","CENTER_NAME":"EARTH","MEAN_MOTION":"15.06389170","OBJECT_TYPE":"PAYLOAD","ARG_OF_PERICENTER":"46.3899","FILE":"3639522","SEMIMAJOR_AXIS":"6925.382","SITE":"AFETR","MEAN_ANOMALY":"313.7261","TIME_SYSTEM":"UTC","PERIOD":"95.593","COUNTRY_CODE":"US","REV_AT_EPOCH":"11278","CLASSIFICATION_TYPE":"U","TLE_LINE2":"2 46679  53.0553 320.5777 0002072  46.3899 313.7261 15.06389170112788","OBJECT_NAME":"STARLINK-1773","INCLINATION":"53.0553","MEAN_MOTION_DOT":"-0.00001750","OBJECT_ID":"2020-073K"},{"OBJECT_TYPE":"PAYLOAD","ARG_OF_PERICENTER":"61.1138","SITE":"AFETR","MEAN_ANOMALY":"299.0017","TIME_SYSTEM":"UTC","SEMIMAJOR_AXIS":"6925.371","FILE":"3638016","LAUNCH_DATE":"2020-10-18","CENTER_NAME":"EARTH","MEAN_MOTION":"15.06392810","APOAPSIS":"548.384","TLE_LINE2":"2 46680  53.0552 357.0647 0001658  61.1138 299.0017 15.06392810112241","OBJECT_NAME":"STARLINK-1774","OBJECT_ID":"2020-073L","INCLINATION":"53.0552","MEAN_MOTION_DOT":"-0.00001113","PERIOD":"95.593","CLASSIFICATION_TYPE":"U","COUNTRY_CODE":"US","REV_AT_EPOCH":"11224","ELEMENT_SET_NO":"999","TLE_LINE1":"1 46680U 20073L   22304.42224033 -.00001113  00000-0 -55865-4 0  9998","PERIAPSIS":"546.087","EPHEMERIS_TYPE":"0","BSTAR":"-0.00005586500000","REF_FRAME":"TEME","ECCENTRICITY":"0.00016580","DECAY_DATE":null,"NORAD_CAT_ID":"46680","RCS_SIZE":"LARGE","RA_OF_ASC_NODE":"357.0647","MEAN_MOTION_DDOT":"0.0000000000000","GP_ID":"216553469","EPOCH":"2022-10-31T10:08:01.564512","MEAN_ELEMENT_THEORY":"SGP4"},{"ECCENTRICITY":"0.00020000","NORAD_CAT_ID":"46681","DECAY_DATE":null,"RCS_SIZE":"LARGE","ELEMENT_SET_NO":"999","TLE_LINE1":"1 46681U 20073M   22304.52543892 -.00001575  00000-0 -86827-4 0  9991","PERIAPSIS":"545.830","EPHEMERIS_TYPE":"0","REF_FRAME":"TEME","BSTAR":"-0.00008682700000","MEAN_ELEMENT_THEORY":"SGP4","RA_OF_ASC_NODE":"356.5984","MEAN_MOTION_DDOT":"0.0000000000000","GP_ID":"216613383","EPOCH":"2022-10-31T12:36:37.922688","LAUNCH_DATE":"2020-10-18","CENTER_NAME":"EARTH","MEAN_MOTION":"15.06399537","APOAPSIS":"548.600","ARG_OF_PERICENTER":"46.1019","OBJECT_TYPE":"PAYLOAD","SITE":"AFETR","TIME_SYSTEM":"UTC","MEAN_ANOMALY":"314.0135","SEMIMAJOR_AXIS":"6925.350","FILE":"3639522","PERIOD":"95.592","CLASSIFICATION_TYPE":"U","COUNTRY_CODE":"US","REV_AT_EPOCH":"11225","TLE_LINE2":"2 46681  53.0573 356.5984 0002000  46.1019 314.0135 15.06399537112259","OBJECT_NAME":"STARLINK-1775","OBJECT_ID":"2020-073M","INCLINATION":"53.0573","MEAN_MOTION_DOT":"-0.00001575"},{"COUNTRY_CODE":"US","REV_AT_EPOCH":"11227","CLASSIFICATION_TYPE":"U","PERIOD":"95.593","INCLINATION":"53.0552","MEAN_MOTION_DOT":"-0.00000705","OBJECT_ID":"2020-073N","TLE_LINE2":"2 46682  53.0552 356.1968 0001575  47.2946 312.8175 15.06384860112277","OBJECT_NAME":"STARLINK-1776","APOAPSIS":"548.351","CENTER_NAME":"EARTH","MEAN_MOTION":"15.06384860","LAUNCH_DATE":"2020-10-18","FILE":"3639522","SEMIMAJOR_AXIS":"6925.395","MEAN_ANOMALY":"312.8175","SITE":"AFETR","TIME_SYSTEM":"UTC","ARG_OF_PERICENTER":"47.2946","OBJECT_TYPE":"PAYLOAD","MEAN_ELEMENT_THEORY":"SGP4","EPOCH":"2022-10-31T14:49:21.399456","GP_ID":"216613134","MEAN_MOTION_DDOT":"0.0000000000000","RA_OF_ASC_NODE":"356.1968","NORAD_CAT_ID":"46682","DECAY_DATE":null,"RCS_SIZE":"LARGE","ECCENTRICITY":"0.00015750","REF_FRAME":"TEME","BSTAR":"-0.00002845500000","PERIAPSIS":"546.169","EPHEMERIS_TYPE":"0","TLE_LINE1":"1 46682U 20073N   22304.61760879 -.00000705  00000-0 -28455-4 0  9995","ELEMENT_SET_NO":"999"},{"OBJECT_ID":"2020-073Q","MEAN_MOTION_DOT":"0.00001505","INCLINATION":"53.0556","OBJECT_NAME":"STARLINK-1780","TLE_LINE2":"2 46684  53.0556 340.3505 0001799  52.2169 307.8983 15.06392070112516","CLASSIFICATION_TYPE":"U","REV_AT_EPOCH":"11251","COUNTRY_CODE":"US","PERIOD":"95.593","TIME_SYSTEM":"UTC","SITE":"AFETR","MEAN_ANOMALY":"307.8983","FILE":"3639522","SEMIMAJOR_AXIS":"6925.373","ARG_OF_PERICENTER":"52.2169","OBJECT_TYPE":"PAYLOAD","MEAN_MOTION":"15.06392070","CENTER_NAME":"EARTH","APOAPSIS":"548.484","LAUNCH_DATE":"2020-10-18","MEAN_MOTION_DDOT":"0.0000000000000","GP_ID":"216614383","EPOCH":"2022-10-31T19:19:22.881216","RA_OF_ASC_NODE":"340.3505","MEAN_ELEMENT_THEORY":"SGP4","EPHEMERIS_TYPE":"0","PERIAPSIS":"545.992","REF_FRAME":"TEME","BSTAR":"0.00011997000000","ELEMENT_SET_NO":"999","TLE_LINE1":"1 46684U 20073Q   22304.80512594  .00001505  00000-0  11997-3 0  9996","RCS_SIZE":"LARGE","NORAD_CAT_ID":"46684","DECAY_DATE":null,"ECCENTRICITY":"0.00017990"},{"ELEMENT_SET_NO":"999","TLE_LINE1":"1 46685U 20073R   22304.85992129 -.00000637  00000-0 -23860-4 0  9998","EPHEMERIS_TYPE":"0","PERIAPSIS":"546.255","BSTAR":"-0.00002386000000","REF_FRAME":"TEME","ECCENTRICITY":"0.00014140","DECAY_DATE":null,"NORAD_CAT_ID":"46685","RCS_SIZE":"LARGE","RA_OF_ASC_NODE":"355.0747","MEAN_MOTION_DDOT":"0.0000000000000","GP_ID":"216614135","EPOCH":"2022-10-31T20:38:17.199456","MEAN_ELEMENT_THEORY":"SGP4","OBJECT_TYPE":"PAYLOAD","ARG_OF_PERICENTER":"61.7296","TIME_SYSTEM":"UTC","SITE":"AFETR","MEAN_ANOMALY":"298.3835","FILE":"3639522","SEMIMAJOR_AXIS":"6925.369","LAUNCH_DATE":"2020-10-18","CENTER_NAME":"EARTH","MEAN_MOTION":"15.06393376","APOAPSIS":"548.213","TLE_LINE2":"2 46685  53.0551 355.0747 0001414  61.7296 298.3835 15.06393376112300","OBJECT_NAME":"STARLINK-1781","OBJECT_ID":"2020-073R","INCLINATION":"53.0551","MEAN_MOTION_DOT":"-0.00000637","PERIOD":"95.593","CLASSIFICATION_TYPE":"U","COUNTRY_CODE":"US","REV_AT_EPOCH":"11230"},{"MEAN_ELEMENT_THEORY":"SGP4","MEAN_MOTION_DDOT":"0.0000000000000","GP_ID":"216612884","EPOCH":"2022-10-31T20:06:25.817184","RA_OF_ASC_NODE":"355.1601","RCS_SIZE":"LARGE","NORAD_CAT_ID":"46686","DECAY_DATE":null,"ECCENTRICITY":"0.00017610","PERIAPSIS":"546.025","EPHEMERIS_TYPE":"0","REF_FRAME":"TEME","BSTAR":"-0.00001935300000","ELEMENT_SET_NO":"999","TLE_LINE1":"1 46686U 20073S   22304.83779881 -.00000570  00000-0 -19353-4 0  9993","CLASSIFICATION_TYPE":"U","REV_AT_EPOCH":"11230","COUNTRY_CODE":"US","PERIOD":"95.593","OBJECT_ID":"2020-073S","MEAN_MOTION_DOT":"-0.00000570","INCLINATION":"53.0539","OBJECT_NAME":"STARLINK-1783","TLE_LINE2":"2 46686  53.0539 355.1601 0001761  50.4482 309.6662 15.06390004112303","MEAN_MOTION":"15.06390004","CENTER_NAME":"EARTH","APOAPSIS":"548.464","LAUNCH_DATE":"2020-10-18","SITE":"AFETR","MEAN_ANOMALY":"309.6662","TIME_SYSTEM":"UTC","FILE":"3639522","SEMIMAJOR_AXIS":"6925.379","ARG_OF_PERICENTER":"50.4482","OBJECT_TYPE":"PAYLOAD"},{"PERIOD":"95.593","REV_AT_EPOCH":"11278","COUNTRY_CODE":"US","CLASSIFICATION_TYPE":"U","OBJECT_NAME":"STARLINK-1784","TLE_LINE2":"2 46687  53.0551 320.5376 0002364  39.6881 320.4281 15.06392253112783","MEAN_MOTION_DOT":"-0.00000171","INCLINATION":"53.0551","OBJECT_ID":"2020-073T","LAUNCH_DATE":"2020-10-18","APOAPSIS":"548.874","MEAN_MOTION":"15.06392253","CENTER_NAME":"EARTH","OBJECT_TYPE":"PAYLOAD","ARG_OF_PERICENTER":"39.6881","FILE":"3639522","SEMIMAJOR_AXIS":"6925.372","SITE":"AFETR","TIME_SYSTEM":"UTC","MEAN_ANOMALY":"320.4281","MEAN_ELEMENT_THEORY":"SGP4","RA_OF_ASC_NODE":"320.5376","EPOCH":"2022-10-31T18:18:20.152800","GP_ID":"216613633","MEAN_MOTION_DDOT":"0.0000000000000","ECCENTRICITY":"0.00023640","RCS_SIZE":"LARGE","NORAD_CAT_ID":"46687","DECAY_DATE":null,"TLE_LINE1":"1 46687U 20073T   22304.76273325 -.00000171  00000-0  74251-5 0  9993","ELEMENT_SET_NO":"999","BSTAR":"0.00000742510000","REF_FRAME":"TEME","PERIAPSIS":"545.600","EPHEMERIS_TYPE":"0"}];
